[Satellite]
VERSION=1.1
NAME=YAMAL 402
NICKNAME=YAMAL 402
TLE1=1 39022U 12070A   15053.18333061  .00000061  00000-0  10000-3 0  9996
TLE2=2 39022   0.0375 278.1142 0001778 144.4110 210.0776  1.00271649  8153
